CSS (TIANHE)            
1 48274U 21035A   24215.89528005  .00023032  00000+0  28695-3 0  9999
2 48274  41.4678 158.2383 0000813 307.1848  52.8916 15.59369476186405
